CCSDS_OMM_VERS = 2.0
CREATION_DATE  = 
ORIGINATOR     = 

OBJECT_NAME    = STARLINK-37059
OBJECT_ID      = 2026-042V
CENTER_NAME    = EARTH
REF_FRAME      = TEME
TIME_SYSTEM    = UTC
MEAN_ELEMENT_THEORY = SGP/SGP4

EPOCH          = 2026-03-26T07:24:30.847968
MEAN_MOTION    = 15.80928137
ECCENTRICITY   = .0000854
INCLINATION    = 53.1572
RA_OF_ASC_NODE = 111.3224
ARG_OF_PERICENTER = 90.9786
MEAN_ANOMALY   = 269.1334

EPHEMERIS_TYPE = 0
CLASSIFICATION_TYPE = U
NORAD_CAT_ID   = 68088
ELEMENT_SET_NO = 999
REV_AT_EPOCH   = 471
BSTAR          = .10347745E-2
MEAN_MOTION_DOT = .209084E-2
MEAN_MOTION_DDOT = 0

CCSDS_OMM_VERS = 2.0
CREATION_DATE  = 
ORIGINATOR     = 

OBJECT_NAME    = STARLINK-37004
OBJECT_ID      = 2026-042W
CENTER_NAME    = EARTH
REF_FRAME      = TEME
TIME_SYSTEM    = UTC
MEAN_ELEMENT_THEORY = SGP/SGP4

EPOCH          = 2026-03-26T07:23:32.593632
MEAN_MOTION    = 15.80293675
ECCENTRICITY   = .00004039
INCLINATION    = 53.1575
RA_OF_ASC_NODE = 111.3176
ARG_OF_PERICENTER = 61.1983
MEAN_ANOMALY   = 298.9080

EPHEMERIS_TYPE = 0
CLASSIFICATION_TYPE = U
NORAD_CAT_ID   = 68089
ELEMENT_SET_NO = 999
REV_AT_EPOCH   = 471
BSTAR          = -.29979812E-2
MEAN_MOTION_DOT = -.541971E-2
MEAN_MOTION_DDOT = 0

CCSDS_OMM_VERS = 2.0
CREATION_DATE  = 
ORIGINATOR     = 

OBJECT_NAME    = STARLINK-36320
OBJECT_ID      = 2026-042X
CENTER_NAME    = EARTH
REF_FRAME      = TEME
TIME_SYSTEM    = UTC
MEAN_ELEMENT_THEORY = SGP/SGP4

EPOCH          = 2026-03-26T06:22:29.230176
MEAN_MOTION    = 15.75290654
ECCENTRICITY   = .00012058
INCLINATION    = 53.1595
RA_OF_ASC_NODE = 111.7712
ARG_OF_PERICENTER = 33.0477
MEAN_ANOMALY   = 327.0618

EPHEMERIS_TYPE = 0
CLASSIFICATION_TYPE = U
NORAD_CAT_ID   = 68090
ELEMENT_SET_NO = 999
REV_AT_EPOCH   = 470
BSTAR          = .13849265E-2
MEAN_MOTION_DOT = .217695E-2
MEAN_MOTION_DDOT = 0

CCSDS_OMM_VERS = 2.0
CREATION_DATE  = 
ORIGINATOR     = 

OBJECT_NAME    = STARLINK-36324
OBJECT_ID      = 2026-042Y
CENTER_NAME    = EARTH
REF_FRAME      = TEME
TIME_SYSTEM    = UTC
MEAN_ELEMENT_THEORY = SGP/SGP4

EPOCH          = 2026-03-26T08:00:51.345504
MEAN_MOTION    = 15.75318155
ECCENTRICITY   = .00023057
INCLINATION    = 53.1591
RA_OF_ASC_NODE = 111.4886
ARG_OF_PERICENTER = 103.1177
MEAN_ANOMALY   = 257.0100

EPHEMERIS_TYPE = 0
CLASSIFICATION_TYPE = U
NORAD_CAT_ID   = 68091
ELEMENT_SET_NO = 999
REV_AT_EPOCH   = 471
BSTAR          = .15613063E-2
MEAN_MOTION_DOT = .246655E-2
MEAN_MOTION_DDOT = 0

CCSDS_OMM_VERS = 2.0
CREATION_DATE  = 
ORIGINATOR     = 

OBJECT_NAME    = STARLINK-36896
OBJECT_ID      = 2026-042Z
CENTER_NAME    = EARTH
REF_FRAME      = TEME
TIME_SYSTEM    = UTC
MEAN_ELEMENT_THEORY = SGP/SGP4

EPOCH          = 2026-03-26T06:16:23.799648
MEAN_MOTION    = 15.73722577
ECCENTRICITY   = .00067581
INCLINATION    = 53.1600
RA_OF_ASC_NODE = 111.7437
ARG_OF_PERICENTER = 95.2648
MEAN_ANOMALY   = 264.9143

EPHEMERIS_TYPE = 0
CLASSIFICATION_TYPE = U
NORAD_CAT_ID   = 68092
ELEMENT_SET_NO = 999
REV_AT_EPOCH   = 469
BSTAR          = -.40328074E-2
MEAN_MOTION_DOT = -.544878E-2
MEAN_MOTION_DDOT = 0

CCSDS_OMM_VERS = 2.0
CREATION_DATE  = 
ORIGINATOR     = 

OBJECT_NAME    = STARLINK-36251
OBJECT_ID      = 2026-042AA
CENTER_NAME    = EARTH
REF_FRAME      = TEME
TIME_SYSTEM    = UTC
MEAN_ELEMENT_THEORY = SGP/SGP4

EPOCH          = 2026-03-26T07:18:02.051424
MEAN_MOTION    = 15.80907747
ECCENTRICITY   = .0000869
INCLINATION    = 53.1579
RA_OF_ASC_NODE = 111.2908
ARG_OF_PERICENTER = 100.6470
MEAN_ANOMALY   = 259.4650

EPHEMERIS_TYPE = 0
CLASSIFICATION_TYPE = U
NORAD_CAT_ID   = 68093
ELEMENT_SET_NO = 999
REV_AT_EPOCH   = 470
BSTAR          = .77352396E-3
MEAN_MOTION_DOT = .154987E-2
MEAN_MOTION_DDOT = 0

CCSDS_OMM_VERS = 2.0
CREATION_DATE  = 
ORIGINATOR     = 

OBJECT_NAME    = STARLINK-36787
OBJECT_ID      = 2026-042AB
CENTER_NAME    = EARTH
REF_FRAME      = TEME
TIME_SYSTEM    = UTC
MEAN_ELEMENT_THEORY = SGP/SGP4

EPOCH          = 2026-03-26T06:22:57.612576
MEAN_MOTION    = 15.75260194
ECCENTRICITY   = .00012339
INCLINATION    = 53.1598
RA_OF_ASC_NODE = 111.7735
ARG_OF_PERICENTER = 51.5019
MEAN_ANOMALY   = 308.6112

EPHEMERIS_TYPE = 0
CLASSIFICATION_TYPE = U
NORAD_CAT_ID   = 68094
ELEMENT_SET_NO = 999
REV_AT_EPOCH   = 469
BSTAR          = .90797072E-3
MEAN_MOTION_DOT = .141014E-2
MEAN_MOTION_DDOT = 0

CCSDS_OMM_VERS = 2.0
CREATION_DATE  = 
ORIGINATOR     = 

OBJECT_NAME    = STARLINK-36790
OBJECT_ID      = 2026-042AC
CENTER_NAME    = EARTH
REF_FRAME      = TEME
TIME_SYSTEM    = UTC
MEAN_ELEMENT_THEORY = SGP/SGP4

EPOCH          = 2026-03-26T06:00:02.000160
MEAN_MOTION    = 15.75220494
ECCENTRICITY   = .00012682
INCLINATION    = 53.1595
RA_OF_ASC_NODE = 111.6421
ARG_OF_PERICENTER = 95.0638
MEAN_ANOMALY   = 277.7234

EPHEMERIS_TYPE = 0
CLASSIFICATION_TYPE = U
NORAD_CAT_ID   = 68095
ELEMENT_SET_NO = 999
REV_AT_EPOCH   = 470
BSTAR          = -.34359554E-4
MEAN_MOTION_DOT = -.5898E-4
MEAN_MOTION_DDOT = 0

CCSDS_OMM_VERS = 2.0
CREATION_DATE  = 
ORIGINATOR     = 

OBJECT_NAME    = STARLINK-36328
OBJECT_ID      = 2026-042AD
CENTER_NAME    = EARTH
REF_FRAME      = TEME
TIME_SYSTEM    = UTC
MEAN_ELEMENT_THEORY = SGP/SGP4

EPOCH          = 2026-03-26T07:14:47.773248
MEAN_MOTION    = 15.80875383
ECCENTRICITY   = .00013521
INCLINATION    = 53.1580
RA_OF_ASC_NODE = 111.2753
ARG_OF_PERICENTER = 48.0942
MEAN_ANOMALY   = 312.0195

EPHEMERIS_TYPE = 0
CLASSIFICATION_TYPE = U
NORAD_CAT_ID   = 68096
ELEMENT_SET_NO = 999
REV_AT_EPOCH   = 470
BSTAR          = .89540207E-3
MEAN_MOTION_DOT = .17977E-2
MEAN_MOTION_DDOT = 0

CCSDS_OMM_VERS = 2.0
CREATION_DATE  = 
ORIGINATOR     = 

OBJECT_NAME    = STARLINK-36853
OBJECT_ID      = 2026-042AE
CENTER_NAME    = EARTH
REF_FRAME      = TEME
TIME_SYSTEM    = UTC
MEAN_ELEMENT_THEORY = SGP/SGP4

EPOCH          = 2026-03-26T07:16:57.503712
MEAN_MOTION    = 15.80861865
ECCENTRICITY   = .00018644
INCLINATION    = 53.1581
RA_OF_ASC_NODE = 111.2862
ARG_OF_PERICENTER = 47.0949
MEAN_ANOMALY   = 313.0230

EPHEMERIS_TYPE = 0
CLASSIFICATION_TYPE = U
NORAD_CAT_ID   = 68097
ELEMENT_SET_NO = 999
REV_AT_EPOCH   = 470
BSTAR          = .79613597E-3
MEAN_MOTION_DOT = .159285E-2
MEAN_MOTION_DDOT = 0

CCSDS_OMM_VERS = 2.0
CREATION_DATE  = 
ORIGINATOR     = 

OBJECT_NAME    = GLOBAL-34
OBJECT_ID      = 2026-043A
CENTER_NAME    = EARTH
REF_FRAME      = TEME
TIME_SYSTEM    = UTC
MEAN_ELEMENT_THEORY = SGP/SGP4

EPOCH          = 2026-03-26T02:28:38.048160
MEAN_MOTION    = 15.31789576
ECCENTRICITY   = .00042158
INCLINATION    = 42.0228
RA_OF_ASC_NODE = 340.7445
ARG_OF_PERICENTER = 33.6535
MEAN_ANOMALY   = 326.4569

EPHEMERIS_TYPE = 0
CLASSIFICATION_TYPE = U
NORAD_CAT_ID   = 68098
ELEMENT_SET_NO = 999
REV_AT_EPOCH   = 308
BSTAR          = .36125471E-3
MEAN_MOTION_DOT = .11095E-3
MEAN_MOTION_DDOT = 0

CCSDS_OMM_VERS = 2.0
CREATION_DATE  = 
ORIGINATOR     = 

OBJECT_NAME    = STARLINK-37022
OBJECT_ID      = 2026-044A
CENTER_NAME    = EARTH
REF_FRAME      = TEME
TIME_SYSTEM    = UTC
MEAN_ELEMENT_THEORY = SGP/SGP4

EPOCH          = 2026-03-26T04:02:01.652352
MEAN_MOTION    = 15.75183288
ECCENTRICITY   = .00012039
INCLINATION    = 97.2833
RA_OF_ASC_NODE = 46.1142
ARG_OF_PERICENTER = 113.7488
MEAN_ANOMALY   = 246.3904

EPHEMERIS_TYPE = 0
CLASSIFICATION_TYPE = U
NORAD_CAT_ID   = 68101
ELEMENT_SET_NO = 999
REV_AT_EPOCH   = 407
BSTAR          = .30982235E-3
MEAN_MOTION_DOT = .46319E-3
MEAN_MOTION_DDOT = 0

