STARLINK-37059          
1 68088U 26042V   26085.30869037  .00209084  00000+0  10348-2 0  9991
2 68088  53.1572 111.3224 0000854  90.9786 269.1334 15.80928137  4719
STARLINK-37004          
1 68089U 26042W   26085.30801613 -.00541971  00000+0 -29980-2 0  9996
2 68089  53.1575 111.3176 0000403  61.1983 298.9080 15.80293675  4718
STARLINK-36320          
1 68090U 26042X   26085.26561609  .00217695  00000+0  13849-2 0  9999
2 68090  53.1595 111.7712 0001205  33.0477 327.0618 15.75290654  4707
STARLINK-36324          
1 68091U 26042Y   26085.33392761  .00246655  00000+0  15613-2 0  9998
2 68091  53.1591 111.4886 0002305 103.1177 257.0100 15.75318155  4717
STARLINK-36896          
1 68092U 26042Z   26085.26138657 -.00544878  00000+0 -40328-2 0  9994
2 68092  53.1600 111.7437 0006758  95.2648 264.9143 15.73722577  4690
STARLINK-36251          
1 68093U 26042AA  26085.30419041  .00154987  00000+0  77352-3 0  9993
2 68093  53.1579 111.2908 0000869 100.6470 259.4650 15.80907747  4701
STARLINK-36787          
1 68094U 26042AB  26085.26594459  .00141014  00000+0  90797-3 0  9991
2 68094  53.1598 111.7735 0001233  51.5019 308.6112 15.75260194  4695
STARLINK-36790          
1 68095U 26042AC  26085.25002315 -.00005898  00000+0 -34360-4 0  9992
2 68095  53.1595 111.6421 0001268  95.0638 277.7234 15.75220494  4704
STARLINK-36328          
1 68096U 26042AD  26085.30194182  .00179770  00000+0  89540-3 0  9991
2 68096  53.1580 111.2753 0001352  48.0942 312.0195 15.80875383  4701
STARLINK-36853          
1 68097U 26042AE  26085.30344333  .00159285  00000+0  79614-3 0  9997
2 68097  53.1581 111.2862 0001864  47.0949 313.0230 15.80861865  4709
GLOBAL-34               
1 68098U 26043A   26085.10321815  .00011095  00000+0  36125-3 0  9993
2 68098  42.0228 340.7445 0004215  33.6535 326.4569 15.31789576  3083
STARLINK-37022          
1 68101U 26044A   26085.16807468  .00046319  00000+0  30982-3 0  9990
2 68101  97.2833  46.1142 0001203 113.7488 246.3904 15.75183288  4073
